0 THORAD AGENA D DEB
1 04644U 70025AC  13279.83040804  .00000279  00000-0  45091-3 0  4176
2 04644 099.9773 136.3587 0013265 073.5180 347.4659 13.57842314147905
0 THORAD AGENA D DEB
1 04644U 70025AC  13282.48343358  .00000327  00000-0  51722-3 0  4184
2 04644 099.9770 139.0511 0013344 067.3273 355.6617 13.57845016148268
0 THORAD AGENA D DEB
1 04644U 70025AC  13287.13619484  .00000348  00000-0  54657-3 0  4203
2 04644 099.9760 143.7728 0013373 056.4763 058.7632 13.57848127148897
0 THORAD AGENA D DEB
1 04644U 70025AC  13289.19775699  .00000380  00000-0  59083-3 0  4217
2 04644 099.9755 145.8650 0013351 051.6498 055.8975 13.57850650149170
0 THORAD AGENA D DEB
1 04644U 70025AC  13291.47270257  .00000372  00000-0  57972-3 0  4228
2 04644 099.9752 148.1734 0013383 046.4143 016.0002 13.57852422149483
0 THORAD AGENA D DEB
1 04644U 70025AC  13293.83017598  .00000407  00000-0  62923-3 0  4239
2 04644 099.9752 150.5655 0013379 040.9040 019.6075 13.57854415149801
